[{"OBJECT_NAME":"DONGPO 10","OBJECT_ID":"2022-167H","EPOCH":"2026-03-09T22:44:56.137344","MEAN_MOTION":15.322785,"ECCENTRICITY":0.00061655,"INCLINATION":97.685,"RA_OF_ASC_NODE":235.0962,"ARG_OF_PERICENTER":106.9526,"MEAN_ANOMALY":253.2392,"EPHEMERIS_TYPE":0,"CLASSIFICATION_TYPE":"U","NORAD_CAT_ID":54689,"ELEMENT_SET_NO":999,"REV_AT_EPOCH":18015,"BSTAR":0.00049390523,"MEAN_MOTION_DOT":0.00015333,"MEAN_MOTION_DDOT":0},{"OBJECT_NAME":"STARLINK-32249","OBJECT_ID":"2024-144V","EPOCH":"2026-03-09T16:25:18.639264","MEAN_MOTION":15.30174225,"ECCENTRICITY":0.00012845,"INCLINATION":53.1603,"RA_OF_ASC_NODE":216.7732,"ARG_OF_PERICENTER":52.5165,"MEAN_ANOMALY":307.5953,"EPHEMERIS_TYPE":0,"CLASSIFICATION_TYPE":"U","NORAD_CAT_ID":60444,"ELEMENT_SET_NO":999,"REV_AT_EPOCH":8935,"BSTAR":-5.7154002e-5,"MEAN_MOTION_DOT":-2.05e-5,"MEAN_MOTION_DDOT":0}]
